GLOBALSTAR M068         
1 32266U 07048D   25274.37316990 -.00000032  00000+0  39605-3 0  9997
2 32266  51.9908 338.5662 0001054  35.6601  45.5636 12.62829555830978
GLOBALSTAR M079         
1 37188U 10054A   25274.46597050 -.00000090  00000+0  74940-4 0  9990
2 37188  52.0029 176.2574 0000750  91.2381  79.5431 12.62267316689878
GLOBALSTAR M074         
1 37189U 10054B   25274.49298006 -.00000084  00000+0  10972-3 0  9990
2 37189  52.0007 175.4819 0000600  68.7231 104.1543 12.62271869690481
GLOBALSTAR M076         
1 37190U 10054C   25274.44001432 -.00000093  00000+0  60363-4 0  9992
2 37190  52.0020 175.8242 0000516  91.9681  79.6452 12.62265765690196
GLOBALSTAR M077         
1 37191U 10054D   25261.11398905 -.00000105  00000+0 -68518-5 0  9993
2 37191  52.0064 173.2575 0000611  67.5371  70.5425 12.62323380688888
GLOBALSTAR M075         
1 37192U 10054E   25274.61122556 -.00000082  00000+0  12072-3 0  9995
2 37192  51.9938 217.4990 0000516  62.9568 107.9276 12.62268103689285
GLOBALSTAR M073         
1 37193U 10054F   25274.82926904 -.00000083  00000+0  11615-3 0  9991
2 37193  52.0039 130.7372 0000818  95.7644 345.8035 12.62263153691307
GLOBALSTAR M083         
1 37739U 11033A   25274.43236315 -.00000067  00000+0  20389-3 0  9992
2 37739  51.9850  80.5266 0000950 100.3895 277.6190 12.62276542660276
GLOBALSTAR M088         
1 37740U 11033B   25273.64362520 -.00000079  00000+0  13973-3 0  9998
2 37740  52.0241 348.7311 0000528  95.5775  55.5934 12.62268184655712
GLOBALSTAR M091         
1 37741U 11033C   25274.84877124 -.00000072  00000+0  17838-3 0  9990
2 37741  52.0004 308.4107 0000563  91.4857  79.7805 12.62260171656658
GLOBALSTAR M085         
1 37742U 11033D   25274.67722220 -.00000082  00000+0  12388-3 0  9994
2 37742  52.0116 259.9985 0000604  80.8986  90.1001 12.62265183657146
GLOBALSTAR M081         
1 37743U 11033E   25274.38188935 -.00000066  00000+0  20895-3 0  9996
2 37743  51.9946 263.6288 0000420  96.3886  51.3274 12.62268872657252
GLOBALSTAR M089         
1 37744U 11033F   25274.58481418 -.00000096  00000+0  45611-4 0  9998
2 37744  51.9922 217.2171 0000338  41.6215 129.4415 12.62267281658124
GLOBALSTAR M084         
1 38040U 11080A   25274.72195573 -.00000091  00000+0  70877-4 0  9997
2 38040  51.9997  84.1418 0000481  97.9147 276.3469 12.62269190636126
GLOBALSTAR M080         
1 38041U 11080B   25274.70863396 -.00000091  00000+0  71467-4 0  9997
2 38041  52.0048  85.8120 0001183  76.1051   6.8278 12.62269450636243
GLOBALSTAR M082         
1 38042U 11080C   25274.56498362 -.00000099  00000+0  25706-4 0  9992
2 38042  52.0092  41.7203 0001050  89.8291 350.8491 12.62268813636933
GLOBALSTAR M092         
1 38043U 11080D   25274.77581852 -.00000080  00000+0  13350-3 0  9994
2 38043  52.0064 131.4651 0000807  80.1902 358.0267 12.62266434635419
GLOBALSTAR M090         
1 38044U 11080E   25274.65587355 -.00000095  00000+0  51551-4 0  9998
2 38044  52.0144  35.3166 0000857 107.2400 265.9953 12.62262514637067
GLOBALSTAR M086         
1 38045U 11080F   25274.36456806 -.00000080  00000+0  13401-3 0  9998
2 38045  51.9919  36.5539 0001169 162.6085 211.5323 12.62277706636970
GLOBALSTAR M097         
1 39072U 13005A   25274.38883390 -.00000065  00000+0  21502-3 0  9996
2 39072  52.0055 311.1446 0000513 111.9139 248.1783 12.62266093584225
GLOBALSTAR M093         
1 39073U 13005B   25274.44199186 -.00000072  00000+0  17976-3 0  9995
2 39073  52.0109 304.2313 0000699 116.5957 243.4981 12.62264819584183
GLOBALSTAR M094         
1 39074U 13005C   25274.52088955 -.00000097  00000+0  39513-4 0  9995
2 39074  51.9950 218.3614 0000661  85.0543 275.0399 12.62270115585805
GLOBALSTAR M096         
1 39075U 13005D   25274.37572376 -.00000076  00000+0  15751-3 0  9998
2 39075  52.0063 267.4024 0000567  89.1564 270.9368 12.62267279584701
GLOBALSTAR M078         
1 39076U 13005E   25274.50808605 -.00000077  00000+0  14971-3 0  9995
2 39076  51.9899 351.3673 0001287  73.8383 286.2625 12.62258844583342
GLOBALSTAR M095         
1 39077U 13005F   25274.45489279 -.00000078  00000+0  14241-3 0  9993
2 39077  52.0108 348.7652 0001017 100.6070 259.4911 12.62260190583198
GLOBALSTAR M087         
1 52888U 22064A   25274.86435603 -.00000089  00000+0  81935-4 0  9997
2 52888  51.9976 128.9062 0000992  88.9853 271.1127 12.62289070158517
